{
  "type": "FeatureCollection",
  "features": [
    {
      "type": "Feature",
      "properties": {
        "norad_id": 15362,
        "name": "NOVA 3",
        "group": "nnss",
        "lat": -11.395930116509726,
        "lon": 80.64656016634669,
        "alt_km": 1159.4781216656002,
        "timestamp": "2025-12-20T03:42:47.661638+00:00",
        "meta_object_name": "NOVA 3",
        "meta_object_id": "1984-110A",
        "meta_epoch": "2025-12-19T11:29:40.293312",
        "meta_mean_motion": 13.23045275,
        "meta_eccentricity": 0.0030034,
        "meta_inclination": 90.1221,
        "meta_ra_of_asc_node": 80.614,
        "meta_arg_of_pericenter": 312.622,
        "meta_mean_anomaly": 59.034,
        "meta_ephemeris_type": 0,
        "meta_classification_type": "U",
        "meta_norad_cat_id": 15362,
        "meta_element_set_no": 999,
        "meta_rev_at_epoch": 98788,
        "meta_bstar": 9.0213e-05,
        "meta_mean_motion_dot": 4.6e-07,
        "meta_mean_motion_ddot": 0,
        "tle_line1": "1 15362U 84110A   25353.47893858  .00000046  00000+0  90213-4 0  9999",
        "tle_line2": "2 15362  90.1221  80.6140 0030034 312.6220  59.0340 13.23045275987882"
      },
      "geometry": {
        "type": "Point",
        "coordinates": [
          80.64656016634669,
          -11.395930116509726
        ]
      }
    },
    {
      "type": "Feature",
      "properties": {
        "norad_id": 15935,
        "name": "OSCAR 30",
        "group": "nnss",
        "lat": 56.43896932940992,
        "lon": 99.71865169822871,
        "alt_km": 992.4418333836356,
        "timestamp": "2025-12-20T03:42:47.661649+00:00",
        "meta_object_name": "OSCAR 30",
        "meta_object_id": "1985-066A",
        "meta_epoch": "2025-12-19T13:06:55.636128",
        "meta_mean_motion": 13.3607924,
        "meta_eccentricity": 0.0169224,
        "meta_inclination": 90.1656,
        "meta_ra_of_asc_node": 99.9585,
        "meta_arg_of_pericenter": 64.9065,
        "meta_mean_anomaly": 307.9619,
        "meta_ephemeris_type": 0,
        "meta_classification_type": "U",
        "meta_norad_cat_id": 15935,
        "meta_element_set_no": 999,
        "meta_rev_at_epoch": 96544,
        "meta_bstar": 9.8407e-05,
        "meta_mean_motion_dot": 6.5e-07,
        "meta_mean_motion_ddot": 0,
        "tle_line1": "1 15935U 85066A   25353.54647727  .00000065  00000+0  98407-4 0  9990",
        "tle_line2": "2 15935  90.1656  99.9585 0169224  64.9065 307.9619 13.36079240965449"
      },
      "geometry": {
        "type": "Point",
        "coordinates": [
          99.71865169822871,
          56.43896932940992
        ]
      }
    },
    {
      "type": "Feature",
      "properties": {
        "norad_id": 15936,
        "name": "OSCAR 24",
        "group": "nnss",
        "lat": 49.985162979515415,
        "lon": -87.35003788955788,
        "alt_km": 1054.975746914598,
        "timestamp": "2025-12-20T03:42:47.661661+00:00",
        "meta_object_name": "OSCAR 24",
        "meta_object_id": "1985-066B",
        "meta_epoch": "2025-12-19T20:29:27.143232",
        "meta_mean_motion": 13.35936665,
        "meta_eccentricity": 0.017036,
        "meta_inclination": 90.1791,
        "meta_ra_of_asc_node": 92.4312,
        "meta_arg_of_pericenter": 70.4919,
        "meta_mean_anomaly": 51.325,
        "meta_ephemeris_type": 0,
        "meta_classification_type": "U",
        "meta_norad_cat_id": 15936,
        "meta_element_set_no": 999,
        "meta_rev_at_epoch": 96738,
        "meta_bstar": 9.1696e-05,
        "meta_mean_motion_dot": 6.1e-07,
        "meta_mean_motion_ddot": 0,
        "tle_line1": "1 15936U 85066B   25353.85378638  .00000061  00000+0  91696-4 0  9996",
        "tle_line2": "2 15936  90.1791  92.4312 0170360  70.4919  51.3250 13.35936665967387"
      },
      "geometry": {
        "type": "Point",
        "coordinates": [
          -87.35003788955788,
          49.985162979515415
        ]
      }
    },
    {
      "type": "Feature",
      "properties": {
        "norad_id": 17070,
        "name": "POLAR BEAR",
        "group": "nnss",
        "lat": -67.83786674483609,
        "lon": -177.46427566252214,
        "alt_km": 1017.5324296050403,
        "timestamp": "2025-12-20T03:42:47.661671+00:00",
        "meta_object_name": "POLAR BEAR",
        "meta_object_id": "1986-088A",
        "meta_epoch": "2025-12-19T10:53:24.401760",
        "meta_mean_motion": 13.75252169,
        "meta_eccentricity": 0.00412501,
        "meta_inclination": 89.617,
        "meta_ra_of_asc_node": 183.5049,
        "meta_arg_of_pericenter": 99.9087,
        "meta_mean_anomaly": 324.1249,
        "meta_ephemeris_type": 0,
        "meta_classification_type": "U",
        "meta_norad_cat_id": 17070,
        "meta_element_set_no": 999,
        "meta_rev_at_epoch": 96071,
        "meta_bstar": 9.9748716e-05,
        "meta_mean_motion_dot": 1.08e-06,
        "meta_mean_motion_ddot": 0,
        "tle_line1": "1 17070U 86088A   25353.45375465  .00000108  00000+0  99749-4 0  9992",
        "tle_line2": "2 17070  89.6170 183.5049 0041250  99.9087 324.1249 13.75252169960711"
      },
      "geometry": {
        "type": "Point",
        "coordinates": [
          -177.46427566252214,
          -67.83786674483609
        ]
      }
    },
    {
      "type": "Feature",
      "properties": {
        "norad_id": 18361,
        "name": "OSCAR 27",
        "group": "nnss",
        "lat": 80.23688147607842,
        "lon": -98.2742726371511,
        "alt_km": 1099.9625199943357,
        "timestamp": "2025-12-20T03:42:47.661682+00:00",
        "meta_object_name": "OSCAR 27",
        "meta_object_id": "1987-080A",
        "meta_epoch": "2025-12-19T12:55:35.147136",
        "meta_mean_motion": 13.44908026,
        "meta_eccentricity": 0.010346,
        "meta_inclination": 90.3741,
        "meta_ra_of_asc_node": 79.5267,
        "meta_arg_of_pericenter": 204.1781,
        "meta_mean_anomaly": 155.4493,
        "meta_ephemeris_type": 0,
        "meta_classification_type": "U",
        "meta_norad_cat_id": 18361,
        "meta_element_set_no": 999,
        "meta_rev_at_epoch": 87648,
        "meta_bstar": 0.00015116,
        "meta_mean_motion_dot": 1e-06,
        "meta_mean_motion_ddot": 0,
        "tle_line1": "1 18361U 87080A   25353.53860124  .00000100  00000+0  15116-3 0  9996",
        "tle_line2": "2 18361  90.3741  79.5267 0103460 204.1781 155.4493 13.44908026876489"
      },
      "geometry": {
        "type": "Point",
        "coordinates": [
          -98.2742726371511,
          80.23688147607842
        ]
      }
    },
    {
      "type": "Feature",
      "properties": {
        "norad_id": 18362,
        "name": "OSCAR 29",
        "group": "nnss",
        "lat": 80.07757758542401,
        "lon": -97.84425025608796,
        "alt_km": 1130.505674861779,
        "timestamp": "2025-12-20T03:42:47.661692+00:00",
        "meta_object_name": "OSCAR 29",
        "meta_object_id": "1987-080B",
        "meta_epoch": "2025-12-19T12:58:39.035712",
        "meta_mean_motion": 13.44449557,
        "meta_eccentricity": 0.010432,
        "meta_inclination": 90.3752,
        "meta_ra_of_asc_node": 79.9861,
        "meta_arg_of_pericenter": 227.4328,
        "meta_mean_anomaly": 143.48,
        "meta_ephemeris_type": 0,
        "meta_classification_type": "U",
        "meta_norad_cat_id": 18362,
        "meta_element_set_no": 999,
        "meta_rev_at_epoch": 87601,
        "meta_bstar": 0.00013403,
        "meta_mean_motion_dot": 8.8e-07,
        "meta_mean_motion_ddot": 0,
        "tle_line1": "1 18362U 87080B   25353.54072958  .00000088  00000+0  13403-3 0  9990",
        "tle_line2": "2 18362  90.3752  79.9861 0104320 227.4328 143.4800 13.44449557876014"
      },
      "geometry": {
        "type": "Point",
        "coordinates": [
          -97.84425025608796,
          80.07757758542401
        ]
      }
    },
    {
      "type": "Feature",
      "properties": {
        "norad_id": 19070,
        "name": "OSCAR 23",
        "group": "nnss",
        "lat": 28.10840145018924,
        "lon": -163.20626666744639,
        "alt_km": 1011.8117503715221,
        "timestamp": "2025-12-20T03:42:47.661702+00:00",
        "meta_object_name": "OSCAR 23",
        "meta_object_id": "1988-033A",
        "meta_epoch": "2025-12-19T20:34:59.428128",
        "meta_mean_motion": 13.27788361,
        "meta_eccentricity": 0.0190114,
        "meta_inclination": 90.3205,
        "meta_ra_of_asc_node": 16.6132,
        "meta_arg_of_pericenter": 160.1584,
        "meta_mean_anomaly": 12.6618,
        "meta_ephemeris_type": 0,
        "meta_classification_type": "U",
        "meta_norad_cat_id": 19070,
        "meta_element_set_no": 999,
        "meta_rev_at_epoch": 82347,
        "meta_bstar": 0.00019026,
        "meta_mean_motion_dot": 1.04e-06,
        "meta_mean_motion_ddot": 0,
        "tle_line1": "1 19070U 88033A   25353.85763227  .00000104  00000+0  19026-3 0  9992",
        "tle_line2": "2 19070  90.3205  16.6132 0190114 160.1584  12.6618 13.27788361823472"
      },
      "geometry": {
        "type": "Point",
        "coordinates": [
          -163.20626666744639,
          28.10840145018924
        ]
      }
    }
  ]
}